[{"OBJECT_NAME":"STARLINK-32817","OBJECT_ID":"2025-037C","EPOCH":"2026-03-09T22:51:34.589952","MEAN_MOTION":14.98326829,"ECCENTRICITY":0.00027671,"INCLINATION":70.0031,"RA_OF_ASC_NODE":353.7002,"ARG_OF_PERICENTER":263.1614,"MEAN_ANOMALY":96.923,"EPHEMERIS_TYPE":0,"CLASSIFICATION_TYPE":"U","NORAD_CAT_ID":63079,"ELEMENT_SET_NO":999,"REV_AT_EPOCH":5863,"BSTAR":0.00023347418,"MEAN_MOTION_DOT":2.694e-5,"MEAN_MOTION_DDOT":0},{"OBJECT_NAME":"SL-12 R\/B(AUX MOTOR)","OBJECT_ID":"1992-047G","EPOCH":"2026-03-08T14:59:11.448384","MEAN_MOTION":4.38088153,"ECCENTRICITY":0.56955518,"INCLINATION":64.6436,"RA_OF_ASC_NODE":159.2798,"ARG_OF_PERICENTER":160.3524,"MEAN_ANOMALY":236.1832,"EPHEMERIS_TYPE":0,"CLASSIFICATION_TYPE":"U","NORAD_CAT_ID":22066,"ELEMENT_SET_NO":999,"REV_AT_EPOCH":52146,"BSTAR":0.0013536114,"MEAN_MOTION_DOT":1.362e-5,"MEAN_MOTION_DDOT":0}]
